norad_id,name,regime,epoch,line1,line2,inclination,eccentricity,mean_motion,raan,arg_pericenter,mean_anomaly
837,OPS 3674 (VELA 4),HAO,25187.93857554,1 00837U 64040B   25187.93857554  .00000372  00000-0  00000-0 0    17,2 00837  48.8126 130.2414 4710884 258.6690 359.9885  0.24000682 53896,48.8126,0.4710884,0.24000682,130.2414,258.669,359.9885
837,OPS 3674 (VELA 4),HAO,25192.10237143,1 00837U 64040B   25192.10237143  .00000353  00000-0  00000-0 0    17,2 00837  48.8166 130.1748 4728077 258.5731 359.9199  0.23995236 53904,48.8166,0.4728077,0.23995236,130.1748,258.5731,359.9199
837,OPS 3674 (VELA 4),HAO,25196.26613544,1 00837U 64040B   25196.26613544  .00000413  00000-0  00000-0 0    18,2 00837  48.8137 130.1053 4745451 258.5609 359.6974  0.23985795 53918,48.8137,0.4745451,0.23985795,130.1053,258.5609,359.6974
837,OPS 3674 (VELA 4),HAO,25204.59891013,1 00837U 64040B   25204.59891013 -.00000028  00000-0  00000-0 0    16,2 00837  48.8273 129.8890 4771350 258.5454 359.7254  0.23998739 53934,48.8273,0.477135,0.23998739,129.889,258.5454,359.7254
837,OPS 3674 (VELA 4),HAO,25204.59891175,1   837U 64040B   25204.59891175 -.00000028  00000-0  00000+0 0  2577,2   837  48.8273 129.8891 4771346 258.5454 359.7254  0.23998737 53534,48.8273,0.4771346,0.23998737,129.8891,258.5454,359.7254
837,OPS 3674 (VELA 4),HAO,25212.92571250,1 00837U 64040B   25212.92571250  .00000120  00000-0  00000-0 0  3004,2 00837  48.8137 129.7060 4803950 258.3256 359.6255  0.24000560 53950,48.8137,0.480395,0.2400056,129.706,258.3256,359.6255
837,OPS 3674 (VELA 4),HAO,25217.09177201,1 00837U 64040B   25217.09177201  .00000105  00000-0  00000-0 0    16,2 00837  48.8203 129.6281 4820924 258.2402 359.7661  0.23999622 53968,48.8203,0.4820924,0.23999622,129.6281,258.2402,359.7661
837,OPS 3674 (VELA 4),HAO,25237.91988783,1 00837U 64040B   25237.91988783 -.00000040  00000-0  00000-0 0  3038,2 00837  48.8073 129.1301 4896717 258.0552 359.8428  0.23997959 54018,48.8073,0.4896717,0.23997959,129.1301,258.0552,359.8428
837,OPS 3674 (VELA 4),HAO,25242.08773953,1 00837U 64040B   25242.08773953 -.00000011  00000-0  00000-0 0  3042,2 00837  48.8085 129.0552 4914994 257.9789   0.1287  0.24001627 54025,48.8085,0.4914994,0.24001627,129.0552,257.9789,0.1287
837,OPS 3674 (VELA 4),HAO,25258.75434338,1 00837U 64040B   25258.75434338 -.00000164  00000-0  00000-0 0  3065,2 00837  48.8198 128.6685 4974276 257.9188   0.4339  0.23999330 54065,48.8198,0.4974276,0.2399933,128.6685,257.9188,0.4339
837,OPS 3674 (VELA 4),HAO,25262.92162981,1 00837U 64040B   25262.92162981 -.00000043  00000-0  00000-0 0  3078,2 00837  48.8122 128.5457 4989559 257.8266   0.6792  0.24001943 54075,48.8122,0.4989559,0.24001943,128.5457,257.8266,0.6792
837,OPS 3674 (VELA 4),HAO,25267.08260992,1   837U 64040B   25267.08260992  .00000086  00000-0  00000+0 0  2648,2   837  48.8014 128.4628 5006560 257.7278   0.4454  0.23999503 54080,48.8014,0.500656,0.23999503,128.4628,257.7278,0.4454
837,OPS 3674 (VELA 4),HAO,25267.08260993,1 00837U 64040B   25267.08260993  .00000086  00000-0  00000-0 0    19,2 00837  48.8014 128.4628 5006560 257.7278   0.4454  0.23999503 54080,48.8014,0.500656,0.23999503,128.4628,257.7278,0.4454
837,OPS 3674 (VELA 4),HAO,64214.64969000,1 00837U 64040  B 64214.64969000  .00000000 +00000-0 +00000-0 0 00028\,2 00837 040.8945 206.4119 0793900 074.1210 294.4804 00.23979860000045,40.8945,0.07939,0.2397986,206.4119,74.121,294.4804
837,OPS 3674 (VELA 4),HAO,64277.13717590,1 00837U 64040  B 64277.13717590  .00000000 +00000-0 +00000-0 0 00048\,2 00837 040.6759 205.3181 0791364 070.1017 298.2483 00.23989016000203,40.6759,0.0791364,0.23989016,205.3181,70.1017,298.2483
837,OPS 3674 (VELA 4),HAO,64339.65907618,1 00837U 64040  B 64339.65907618  .00000000 +00000-0 +00000-0 0 00057\,2 00837 040.9000 204.7300 0840999 067.2400 301.4258 00.23721288000351,40.9,0.0840999,0.23721288,204.73,67.24,301.4258
837,OPS 3674 (VELA 4),HAO,65030.97968054,1 00837U 64040  B 65030.97968054  .00000000 +00000-0 +00000-0 0 00063\,2 00837 040.7509 203.5079 0854580 065.7748 302.9171 00.24010631000491,40.7509,0.085458,0.24010631,203.5079,65.7748,302.9171
837,OPS 3674 (VELA 4),HAO,65090.31137731,1 00837U 64040  B 65090.31137731  .00000000 +00000-0 +00000-0 0 00078\,2 00837 041.1680 202.4300 0867320 062.6930 306.4832 00.23980521000638,41.168,0.086732,0.23980521,202.43,62.693,306.4832
837,OPS 3674 (VELA 4),HAO,65152.82475692,1 00837U 64040  B 65152.82475692  .00000000 +00000-0 +00000-0 0 00085\,2 00837 040.6369 201.7680 0937030 060.6609 308.3779 00.24006264000787,40.6369,0.093703,0.24006264,201.768,60.6609,308.3779
837,OPS 3674 (VELA 4),HAO,65215.36927085,1 00837U 64040  B 65215.36927085  .00000000 +00000-0 +00000-0 0 00093\,2 00837 040.6369 201.7450 0937030 060.6894 308.3519 00.23982803000938,40.6369,0.093703,0.23982803,201.745,60.6894,308.3519
837,OPS 3674 (VELA 4),HAO,66066.98865972,1 00837U 64040  B 66066.98865972  .00000000 +00000-0 +00000-0 0 00137\,2 00837 040.5558 197.1047 1149913 052.3889 000.0000 00.23996562001451,40.5558,0.1149913,0.23996562,197.1047,52.3889,0.0
837,OPS 3674 (VELA 4),HAO,66125.33885763,1 00837U 64040  B 66125.33885763  .00000000 +00000-0 +00000-0 0 00143\,2 00837 040.3678 196.4571 1242599 051.4811 000.0000 00.23974921001595,40.3678,0.1242599,0.23974921,196.4571,51.4811,0.0
837,OPS 3674 (VELA 4),HAO,66325.34834999,1 00837U 64040  B 66325.34834999  .00000000 +00000-0 +00000-0 0 00152\,2 00837 040.0289 193.4555 1481578 049.3162 322.6565 00.24009681002072,40.0289,0.1481578,0.24009681,193.4555,49.3162,322.6565
837,OPS 3674 (VELA 4),HAO,67081.18056944,1 00837U 64040  B 67081.18056944  .00000000 +00000-0 +00000-0 0 00161\,2 00837 040.1208 191.3123 1636597 047.8485 324.9564 00.24009681002362,40.1208,0.1636597,0.24009681,191.3123,47.8485,324.9564
837,OPS 3674 (VELA 4),HAO,67339.55646794,1 00837U 64040  B 67339.55646794  .00000000 +00000-0 +00000-0 0 00188\,2 00837 039.4885 187.4915 2121149 047.8298 000.0000 00.24014844002986,39.4885,0.2121149,0.24014844,187.4915,47.8298,0.0
837,OPS 3674 (VELA 4),HAO,68337.80972218,1 00837U 64040  B 68337.80972218  .00000000 +00000-0 +00000-0 0 00223\,2 00837 038.6927 180.9841 2974363 048.3950 034.2831 00.23999055003836,38.6927,0.2974363,0.23999055,180.9841,48.395,34.2831
837,OPS 3674 (VELA 4),HAO,69036.00000000,1 00837U 64040  B 69036.00000000  .00000000 +00000-0 +00000-0 0 00234\,2 00837 038.7957 179.5541 3085103 047.9231 182.0717 00.24001569003980,38.7957,0.3085103,0.24001569,179.5541,47.9231,182.0717
837,OPS 3674 (VELA 4),HAO,69156.00000000,1 00837U 64040  B 69156.00000000  .00000000 +00000-0 +00000-0 0 00259\,2 00837 038.2443 177.3012 3488399 049.3183 108.5250 00.23990268004270,38.2443,0.3488399,0.23990268,177.3012,49.3183,108.525
837,OPS 3674 (VELA 4),HAO,69183.00000000,1 00837U 64040  B 69183.00000000  .00000000 +00000-0 +00000-0 0 00260\,2 00837 038.0798 176.5501 3530009 049.2791 282.2411 00.23981390004337,38.0798,0.3530009,0.2398139,176.5501,49.2791,282.2411
837,OPS 3674 (VELA 4),HAO,69337.00000000,1 00837U 64040B   69337.00000000  .00000442  00000-0  10000-3 0    74\,2 00837 037.6659 173.3149 4104709 050.3309 267.4881 00.24013709  4713,37.6659,0.4104709,0.24013709,173.3149,50.3309,267.4881
